ORBCOMM FM06            
1 25118U 97084G   26117.22842616  .00001456  00000+0  43225-3 0  9997
2 25118  45.0141 298.0056 0000517  72.1079  97.3998 14.47432609487007
ORBCOMM FM04            
1 25159U 98007C   26117.25194934  .00001107  00000+0  42548-3 0  9994
2 25159 107.9614  64.6023 0039291  53.8806 306.5962 14.35634393469288
ORBCOMM FM19            
1 25415U 98046C   26117.06539226  .00000903  00000+0  33307-3 0  9994
2 25415  44.9929 126.5407 0002363   6.0271  32.2824 14.39390939449414
ORBCOMM FM20            
1 25416U 98046D   26117.08976575  .00000566  00000+0  23218-3 0  9994
2 25416  44.9925 133.7885 0001782 284.3473  75.7177 14.37986711449432
ORBCOMM FM27            
1 25481U 98053G   26116.53830233  .00000933  00000+0  34516-3 0  9994
2 25481  45.0048 220.6485 0001428 232.4441 127.6278 14.39041320442791
ORBCOMM FM32            
1 25982U 99065C   26117.19506790  .00000884  00000+0  34250-3 0  9995
2 25982  45.0162  54.5885 0004374 170.0963 189.9972 14.37055727379752
ORBCOMM FM109           
1 40086U 14040A   26117.27955375  .00000511  00000+0  14445-3 0  9994
2 40086  47.0043 332.1640 0001732 334.9295  25.1506 14.58790321626918
ORBCOMM FM114           
1 41179U 15081A   26116.61227020  .00000548  00000+0  15226-3 0  9998
2 41179  47.0045 245.8327 0002524 305.7737  54.2914 14.58799723550224
ORBCOMM FM110           
1 41182U 15081D   26117.08047893  .00000675  00000+0  17929-3 0  9995
2 41182  47.0018 243.0748 0003576 207.9353 152.1342 14.58821390550162
ORBCOMM FM118           
1 41183U 15081E   26117.32064003  .00000764  00000+0  19808-3 0  9992
2 41183  47.0037 242.2646 0003190 175.0049 185.0870 14.58819994550305
ORBCOMM FM112           
1 41184U 15081F   26117.11809709  .00000457  00000+0  13304-3 0  9994
2 41184  46.9974 151.7003 0002682 306.0723  53.9914 14.58814757551490
ORBCOMM FM113           
1 41185U 15081G   26117.16406004  .00000413  00000+0  12376-3 0  9991
2 41185  46.9993 151.8610 0002180 308.6746  51.3944 14.58800949551485
ORBCOMM FM108           
1 41187U 15081J   26117.26358785  .00000689  00000+0  18217-3 0  9991
2 41187  47.0054  62.9457 0003255 316.4775  43.5853 14.58792386552647
ORBCOMM FM117           
1 41188U 15081K   26117.16052726  .00000471  00000+0  13612-3 0  9990
2 41188  47.0022  62.0829 0003679 322.4601  37.6028 14.58790145552674
ORBCOMM FM116           
1 41189U 15081L   26117.14139185  .00000521  00000+0  14659-3 0  9992
2 41189  47.0009 151.9643 0002158 222.7295 137.3423 14.58812000551484
